CCSDS_OMM_VERS = 2.0
CREATION_DATE  = 
ORIGINATOR     = 

OBJECT_NAME    = DELTA 2 R/B(1)
OBJECT_ID      = 1990-008B
CENTER_NAME    = EARTH
REF_FRAME      = TEME
TIME_SYSTEM    = UTC
MEAN_ELEMENT_THEORY = SGP/SGP4

EPOCH          = 2026-02-21T23:08:11.429088
MEAN_MOTION    = 15.53648594
ECCENTRICITY   = .0088629
INCLINATION    = 35.6039
RA_OF_ASC_NODE = 277.8767
ARG_OF_PERICENTER = 112.1203
MEAN_ANOMALY   = 248.8969

EPHEMERIS_TYPE = 0
CLASSIFICATION_TYPE = U
NORAD_CAT_ID   = 20453
ELEMENT_SET_NO = 999
REV_AT_EPOCH   = 92368
BSTAR          = .74082E-3
MEAN_MOTION_DOT = .5844E-3
MEAN_MOTION_DDOT = 0

CCSDS_OMM_VERS = 2.0
CREATION_DATE  = 
ORIGINATOR     = 

OBJECT_NAME    = COSMOS 2058
OBJECT_ID      = 1990-010A
CENTER_NAME    = EARTH
REF_FRAME      = TEME
TIME_SYSTEM    = UTC
MEAN_ELEMENT_THEORY = SGP/SGP4

EPOCH          = 2026-02-22T02:06:59.230656
MEAN_MOTION    = 15.11166188
ECCENTRICITY   = .0010525
INCLINATION    = 82.4669
RA_OF_ASC_NODE = 62.7980
ARG_OF_PERICENTER = 36.3459
MEAN_ANOMALY   = 323.8484

EPHEMERIS_TYPE = 0
CLASSIFICATION_TYPE = U
NORAD_CAT_ID   = 20465
ELEMENT_SET_NO = 999
REV_AT_EPOCH   = 93988
BSTAR          = .21368E-3
MEAN_MOTION_DOT = .3616E-4
MEAN_MOTION_DDOT = 0

CCSDS_OMM_VERS = 2.0
CREATION_DATE  = 
ORIGINATOR     = 

OBJECT_NAME    = SL-14 R/B
OBJECT_ID      = 1990-010B
CENTER_NAME    = EARTH
REF_FRAME      = TEME
TIME_SYSTEM    = UTC
MEAN_ELEMENT_THEORY = SGP/SGP4

EPOCH          = 2026-02-22T02:33:36.465120
MEAN_MOTION    = 14.83554171
ECCENTRICITY   = .0019699
INCLINATION    = 82.5004
RA_OF_ASC_NODE = 282.0290
ARG_OF_PERICENTER = 355.7477
MEAN_ANOMALY   = 4.3568

EPHEMERIS_TYPE = 0
CLASSIFICATION_TYPE = U
NORAD_CAT_ID   = 20466
ELEMENT_SET_NO = 999
REV_AT_EPOCH   = 92617
BSTAR          = .36212E-4
MEAN_MOTION_DOT = .323E-5
MEAN_MOTION_DDOT = 0

CCSDS_OMM_VERS = 2.0
CREATION_DATE  = 
ORIGINATOR     = 

OBJECT_NAME    = SL-14 R/B
OBJECT_ID      = 1990-018B
CENTER_NAME    = EARTH
REF_FRAME      = TEME
TIME_SYSTEM    = UTC
MEAN_ELEMENT_THEORY = SGP/SGP4

EPOCH          = 2026-02-21T12:02:41.817696
MEAN_MOTION    = 14.82125377
ECCENTRICITY   = .0017187
INCLINATION    = 82.5179
RA_OF_ASC_NODE = 238.2225
ARG_OF_PERICENTER = 141.4900
MEAN_ANOMALY   = 218.7545

EPHEMERIS_TYPE = 0
CLASSIFICATION_TYPE = U
NORAD_CAT_ID   = 20511
ELEMENT_SET_NO = 999
REV_AT_EPOCH   = 92018
BSTAR          = .47618E-4
MEAN_MOTION_DOT = .403E-5
MEAN_MOTION_DDOT = 0

CCSDS_OMM_VERS = 2.0
CREATION_DATE  = 
ORIGINATOR     = 

OBJECT_NAME    = HST
OBJECT_ID      = 1990-037B
CENTER_NAME    = EARTH
REF_FRAME      = TEME
TIME_SYSTEM    = UTC
MEAN_ELEMENT_THEORY = SGP/SGP4

EPOCH          = 2026-02-21T13:31:26.002560
MEAN_MOTION    = 15.29203976
ECCENTRICITY   = .000109
INCLINATION    = 28.4686
RA_OF_ASC_NODE = 149.9853
ARG_OF_PERICENTER = 298.8097
MEAN_ANOMALY   = 61.2389

EPHEMERIS_TYPE = 0
CLASSIFICATION_TYPE = U
NORAD_CAT_ID   = 20580
ELEMENT_SET_NO = 999
REV_AT_EPOCH   = 77084
BSTAR          = .23461E-3
MEAN_MOTION_DOT = .7071E-4
MEAN_MOTION_DDOT = 0

CCSDS_OMM_VERS = 2.0
CREATION_DATE  = 
ORIGINATOR     = 

OBJECT_NAME    = SL-16 R/B
OBJECT_ID      = 1990-046B
CENTER_NAME    = EARTH
REF_FRAME      = TEME
TIME_SYSTEM    = UTC
MEAN_ELEMENT_THEORY = SGP/SGP4

EPOCH          = 2026-02-22T03:28:49.517184
MEAN_MOTION    = 14.15014575
ECCENTRICITY   = .0015639
INCLINATION    = 71.0019
RA_OF_ASC_NODE = 330.5596
ARG_OF_PERICENTER = 321.0124
MEAN_ANOMALY   = 38.9870

EPHEMERIS_TYPE = 0
CLASSIFICATION_TYPE = U
NORAD_CAT_ID   = 20625
ELEMENT_SET_NO = 999
REV_AT_EPOCH   = 84619
BSTAR          = .82588E-4
MEAN_MOTION_DOT = .112E-5
MEAN_MOTION_DDOT = 0

CCSDS_OMM_VERS = 2.0
CREATION_DATE  = 
ORIGINATOR     = 

OBJECT_NAME    = COSMOS 2084
OBJECT_ID      = 1990-055A
CENTER_NAME    = EARTH
REF_FRAME      = TEME
TIME_SYSTEM    = UTC
MEAN_ELEMENT_THEORY = SGP/SGP4

EPOCH          = 2026-02-22T04:19:46.172928
MEAN_MOTION    = 15.05538944
ECCENTRICITY   = .0019518
INCLINATION    = 62.7911
RA_OF_ASC_NODE = 28.4687
ARG_OF_PERICENTER = 186.5164
MEAN_ANOMALY   = 173.5686

EPHEMERIS_TYPE = 0
CLASSIFICATION_TYPE = U
NORAD_CAT_ID   = 20663
ELEMENT_SET_NO = 999
REV_AT_EPOCH   = 93398
BSTAR          = .18307E-3
MEAN_MOTION_DOT = .2455E-4
MEAN_MOTION_DDOT = 0

CCSDS_OMM_VERS = 2.0
CREATION_DATE  = 
ORIGINATOR     = 

OBJECT_NAME    = SL-6 R/B(2)
OBJECT_ID      = 1990-055D
CENTER_NAME    = EARTH
REF_FRAME      = TEME
TIME_SYSTEM    = UTC
MEAN_ELEMENT_THEORY = SGP/SGP4

EPOCH          = 2026-02-22T03:24:26.268480
MEAN_MOTION    = 15.03512221
ECCENTRICITY   = .0022416
INCLINATION    = 62.7836
RA_OF_ASC_NODE = 306.7214
ARG_OF_PERICENTER = 342.9929
MEAN_ANOMALY   = 17.0417

EPHEMERIS_TYPE = 0
CLASSIFICATION_TYPE = U
NORAD_CAT_ID   = 20666
ELEMENT_SET_NO = 999
REV_AT_EPOCH   = 93585
BSTAR          = .13805E-3
MEAN_MOTION_DOT = .17E-4
MEAN_MOTION_DDOT = 0

CCSDS_OMM_VERS = 2.0
CREATION_DATE  = 
ORIGINATOR     = 

OBJECT_NAME    = SL-8 R/B
OBJECT_ID      = 1990-078B
CENTER_NAME    = EARTH
REF_FRAME      = TEME
TIME_SYSTEM    = UTC
MEAN_ELEMENT_THEORY = SGP/SGP4

EPOCH          = 2026-02-22T01:12:16.277760
MEAN_MOTION    = 14.88497374
ECCENTRICITY   = .0365575
INCLINATION    = 82.9001
RA_OF_ASC_NODE = 265.3711
ARG_OF_PERICENTER = 66.4521
MEAN_ANOMALY   = 297.4651

EPHEMERIS_TYPE = 0
CLASSIFICATION_TYPE = U
NORAD_CAT_ID   = 20775
ELEMENT_SET_NO = 999
REV_AT_EPOCH   = 80697
BSTAR          = .40298E-3
MEAN_MOTION_DOT = .13743E-3
MEAN_MOTION_DDOT = 0

CCSDS_OMM_VERS = 2.0
CREATION_DATE  = 
ORIGINATOR     = 

OBJECT_NAME    = SL-8 R/B
OBJECT_ID      = 1991-006B
CENTER_NAME    = EARTH
REF_FRAME      = TEME
TIME_SYSTEM    = UTC
MEAN_ELEMENT_THEORY = SGP/SGP4

EPOCH          = 2026-02-22T02:29:51.278208
MEAN_MOTION    = 13.77492500
ECCENTRICITY   = .00237
INCLINATION    = 82.9455
RA_OF_ASC_NODE = 181.6319
ARG_OF_PERICENTER = 80.1001
MEAN_ANOMALY   = 99.8727

EPHEMERIS_TYPE = 0
CLASSIFICATION_TYPE = U
NORAD_CAT_ID   = 21088
ELEMENT_SET_NO = 999
REV_AT_EPOCH   = 76192
BSTAR          = .28325E-4
MEAN_MOTION_DOT = .44E-6
MEAN_MOTION_DDOT = 0

CCSDS_OMM_VERS = 2.0
CREATION_DATE  = 
ORIGINATOR     = 

OBJECT_NAME    = OKEAN-3
OBJECT_ID      = 1991-039A
CENTER_NAME    = EARTH
REF_FRAME      = TEME
TIME_SYSTEM    = UTC
MEAN_ELEMENT_THEORY = SGP/SGP4

EPOCH          = 2026-02-21T18:51:40.991040
MEAN_MOTION    = 15.04678428
ECCENTRICITY   = .00152031
INCLINATION    = 82.5209
RA_OF_ASC_NODE = 352.2470
ARG_OF_PERICENTER = 30.4575
MEAN_ANOMALY   = 329.7531

EPHEMERIS_TYPE = 0
CLASSIFICATION_TYPE = U
NORAD_CAT_ID   = 21397
ELEMENT_SET_NO = 999
REV_AT_EPOCH   = 86264
BSTAR          = .23157364E-3
MEAN_MOTION_DOT = .3292E-4
MEAN_MOTION_DDOT = 0

CCSDS_OMM_VERS = 2.0
CREATION_DATE  = 
ORIGINATOR     = 

OBJECT_NAME    = COSMOS 2151
OBJECT_ID      = 1991-042A
CENTER_NAME    = EARTH
REF_FRAME      = TEME
TIME_SYSTEM    = UTC
MEAN_ELEMENT_THEORY = SGP/SGP4

EPOCH          = 2026-02-22T01:47:00.042720
MEAN_MOTION    = 15.00039626
ECCENTRICITY   = .0014052
INCLINATION    = 82.4943
RA_OF_ASC_NODE = 98.7420
ARG_OF_PERICENTER = 110.3505
MEAN_ANOMALY   = 249.9230

EPHEMERIS_TYPE = 0
CLASSIFICATION_TYPE = U
NORAD_CAT_ID   = 21422
ELEMENT_SET_NO = 999
REV_AT_EPOCH   = 86085
BSTAR          = .12158E-3
MEAN_MOTION_DOT = .1543E-4
MEAN_MOTION_DDOT = 0

