DELTA 2 R/B(1)          
1 20453U 90008B   26052.96402117  .00058440  00000+0  74082-3 0  9990
2 20453  35.6039 277.8767 0088629 112.1203 248.8969 15.53648594923683
COSMOS 2058             
1 20465U 90010A   26053.08818554  .00003616  00000+0  21368-3 0  9990
2 20465  82.4669  62.7980 0010525  36.3459 323.8484 15.11166188939886
SL-14 R/B               
1 20466U 90010B   26053.10667205  .00000323  00000+0  36212-4 0  9996
2 20466  82.5004 282.0290 0019699 355.7477   4.3568 14.83554171926174
SL-14 R/B               
1 20511U 90018B   26052.50187289  .00000403  00000+0  47618-4 0  9998
2 20511  82.5179 238.2225 0017187 141.4900 218.7545 14.82125377920182
HST                     
1 20580U 90037B   26052.56349540  .00007071  00000+0  23461-3 0  9998
2 20580  28.4686 149.9853 0001090 298.8097  61.2389 15.29203976770842
SL-16 R/B               
1 20625U 90046B   26053.14501756  .00000112  00000+0  82588-4 0  9997
2 20625  71.0019 330.5596 0015639 321.0124  38.9870 14.15014575846199
COSMOS 2084             
1 20663U 90055A   26053.18039552  .00002455  00000+0  18307-3 0  9992
2 20663  62.7911  28.4687 0019518 186.5164 173.5686 15.05538944933987
SL-6 R/B(2)             
1 20666U 90055D   26053.14197070  .00001700  00000+0  13805-3 0  9991
2 20666  62.7836 306.7214 0022416 342.9929  17.0417 15.03512221935852
SL-8 R/B                
1 20775U 90078B   26053.05018840  .00013743  00000+0  40298-3 0  9990
2 20775  82.9001 265.3711 0365575  66.4521 297.4651 14.88497374806972
SL-8 R/B                
1 21088U 91006B   26053.10406572  .00000044  00000+0  28325-4 0  9997
2 21088  82.9455 181.6319 0023700  80.1001  99.8727 13.77492500761920
OKEAN-3                 
1 21397U 91039A   26052.78589110  .00003292  00000+0  23157-3 0  9994
2 21397  82.5209 352.2470 0015203  30.4575 329.7531 15.04678428862649
COSMOS 2151             
1 21422U 91042A   26053.07430605  .00001543  00000+0  12158-3 0  9990
2 21422  82.4943  98.7420 0014052 110.3505 249.9230 15.00039626860858
